[Satellite]
VERSION=1.1
NAME=XW-2D
NICKNAME=XW-2D
TLE1=1 40907U 15049J   20158.14898425  .00000592  00000-0  33954-4 0  9990
TLE2=2 40907  97.4747 159.3713 0015508  53.9863  10.3349 15.16298433260563
STATUS=0
